QZS-1R                  
1 49336U 21096A   24211.68778481 -.00000328  00000+0  00000+0 0  9994
2 49336  36.0283  89.8814 0758664 272.2856 324.0497  1.00243260 10104
